OBJECT_NAME,OBJECT_ID,EPOCH,MEAN_MOTION,ECCENTRICITY,INCLINATION,RA_OF_ASC_NODE,ARG_OF_PERICENTER,MEAN_ANOMALY,EPHEMERIS_TYPE,CLASSIFICATION_TYPE,NORAD_CAT_ID,ELEMENT_SET_NO,REV_AT_EPOCH,BSTAR,MEAN_MOTION_DOT,MEAN_MOTION_DDOT
BEIDOU-2 G8 (C01),2019-027A,2026-06-22T20:16:09.030144,1.00269442,.00100932,1.6736,74.5271,283.1436,1.8998,0,U,44231,999,2613,0,-.245E-5,0
COSMOS 2534 (758),2019-030A,2026-06-22T04:23:39.562656,2.13102276,.00134508,64.3690,192.4481,275.1082,96.7066,0,U,44299,999,5503,0,.84E-6,0
BEIDOU-3 IGSO-2 (C39),2019-035A,2026-06-21T08:40:24.173760,1.00265382,.00392998,55.2486,158.8257,216.3163,144.0827,0,U,44337,999,2571,0,-.77E-6,0
GPS BIII-2  (PRN 18),2019-056A,2026-06-21T14:03:48.068928,2.00569871,.00622105,55.6349,330.9669,197.6384,126.0098,0,U,44506,999,5015,0,-.97E-6,0
BEIDOU-3 M24 (C46),2019-061A,2026-06-22T01:48:03.250368,1.86229099,.00084033,54.3965,182.5626,358.7652,1.2597,0,U,44542,999,4588,0,.89E-6,0
BEIDOU-3 M23 (C45),2019-061B,2026-06-22T07:29:32.517888,1.86227318,.00058308,54.3953,182.5227,338.7087,91.8728,0,U,44543,999,4589,0,.91E-6,0
EUTELSAT 5 WEST B (EGNOS/PRN 121),2019-067A,2026-06-22T17:50:52.903104,1.00270838,.00032498,0.0619,357.2297,94.0191,82.3947,0,U,44624,999,2449,0,-.4E-6,0
BEIDOU-3 M22 (C44),2019-078A,2026-06-20T07:17:50.493696,1.86227050,.00062748,53.9327,299.7181,51.0609,308.9925,0,U,44793,999,4470,0,-.9E-6,0
BEIDOU-3 M21 (C43),2019-078B,2026-06-18T07:06:24.553728,1.86227678,.00040645,53.9076,299.7502,49.2520,310.7784,0,U,44794,999,4467,0,-.76E-6,0
COSMOS 2544 (759),2019-088A,2026-06-22T15:51:06.850080,2.13102846,.00129113,65.5686,73.5480,258.0838,101.8040,0,U,44850,999,5083,0,-.62E-6,0
BEIDOU-3 M19 (C41),2019-090A,2026-06-22T00:36:01.919808,1.86231615,.00175755,56.5630,62.6299,297.9710,239.4345,0,U,44864,999,4432,0,-.87E-6,0
BEIDOU-3 M20 (C42),2019-090B,2026-06-21T21:24:28.704960,1.86231548,.00154106,56.5647,62.6690,312.3646,225.4433,0,U,44865,999,4430,0,-.86E-6,0
BEIDOU-3 G2 (C60),2020-017A,2026-06-22T19:57:37.349856,1.00271807,.00022489,2.8763,47.4549,34.6092,208.4333,0,U,45344,999,2331,0,-.139E-5,0
COSMOS 2545 (760),2020-018A,2026-06-22T09:16:10.204608,2.13102349,.00085569,64.3519,312.2361,229.6925,130.2259,0,U,45358,999,4877,0,-.76E-6,0
BEIDOU-3 G3 (C61),2020-040A,2026-06-21T01:25:50.407680,1.00277648,.00026056,2.4578,67.5071,323.9743,9.6886,0,U,45807,999,2210,0,-.357E-5,0
GPS BIII-3  (PRN 23),2020-041A,2026-06-22T17:13:34.256640,2.00558666,.0064233,56.6735,28.7279,204.6080,154.4402,0,U,45854,999,4414,0,-.98E-6,0
GALAXY 30 (WAAS/PRN 135),2020-056C,2026-06-22T00:10:03.160992,1.00273596,.00023248,0.0195,18.6690,70.4861,58.5611,0,U,46114,999,2134,0,.37E-6,0
COSMOS 2547 (705K),2020-075A,2026-06-22T02:33:24.871104,2.13100042,.00093574,64.5997,192.3113,239.8177,120.1360,0,U,46805,999,4401,0,.83E-6,0
GPS BIII-4  (PRN 14),2020-078A,2026-06-22T18:02:04.441920,2.00565024,.00737005,53.9791,210.5526,207.3839,152.5141,0,U,46826,999,4162,0,.52E-6,0
GPS BIII-5  (PRN 11),2021-054A,2026-06-21T17:58:38.657856,2.00568823,.00253873,55.1721,332.2753,228.5068,313.8862,0,U,48859,999,3684,0,-.98E-6,0
QZS-1R (QZSS/PRN 196),2021-096A,2026-06-22T15:02:25.970208,1.00254128,.07551698,37.4731,79.5013,271.9072,278.6258,0,U,49336,999,1706,0,-.307E-5,0
GSAT0223 (GALILEO 27),2021-116A,2026-06-20T12:19:06.071808,1.70476019,.00015267,57.1598,341.5839,184.9823,176.1289,0,U,49809,999,2824,0,-.95E-6,0
GSAT0224 (GALILEO 28),2021-116B,2026-06-21T12:26:18.280032,1.70476208,.00012871,57.1598,341.5558,159.8304,210.7002,0,U,49810,999,2828,0,-.97E-6,0
COSMOS 2557 (706K),2022-075A,2026-06-22T06:29:57.729120,2.13102021,.00103034,64.2952,314.3058,273.7574,86.1177,0,U,52984,999,3082,0,-.76E-6,0
COSMOS 2559 (707K),2022-130A,2026-06-18T08:04:20.621856,2.13101593,.0012585,64.2705,314.5280,178.2040,181.7898,0,U,54031,999,2871,0,-.58E-6,0
COSMOS 2564 (761),2022-161A,2026-06-20T01:21:34.243776,2.13102033,.0012215,64.7420,192.6165,224.8634,135.0824,0,U,54377,999,2769,0,.61E-6,0
GPS BIII-6  (PRN 28),2023-009A,2026-06-21T22:35:44.029248,2.00571277,.0006151,55.1235,148.3319,317.3275,42.3704,0,U,55268,999,2533,0,.73E-6,0
BEIDOU-3 G4 (C62),2023-066A,2026-06-22T20:14:46.660704,1.00272324,.00045856,0.4800,333.0281,177.1449,204.5969,0,U,56564,999,1145,0,-.278E-5,0
NVS-01 (IRNSS-1J),2023-076A,2026-06-22T20:11:46.947840,1.00276584,.00029542,2.1520,244.0775,15.6948,83.6741,0,U,56759,999,1117,0,-.331E-5,0
COSMOS 2569 (703K),2023-114A,2026-06-21T22:42:15.534432,2.13103733,.00104833,65.3047,72.4599,296.8456,63.0820,0,U,57517,999,2236,0,-.57E-6,0
BEIDOU-3 M28 (C50),2023-207A,2026-06-22T03:09:55.967328,1.86229789,.00031049,55.7571,62.1361,350.5709,9.4595,0,U,58654,999,1693,0,-.89E-6,0
