BEIDOU-2 G8             
1 44231U 19027A   26173.84454896 -.00000245  00000+0  00000+0 0  9990
2 44231   1.6736  74.5271 0010093 283.1436   1.8998  1.00269442 26130
COSMOS 2534 [GLONASS-M] 
1 44299U 19030A   26173.18309679  .00000084  00000+0  00000+0 0  9993
2 44299  64.3690 192.4481 0013450 275.1082  96.7066  2.13102276 55036
BEIDOU-3 IGSO-2         
1 44337U 19035A   26172.36139090 -.00000077  00000+0  00000+0 0  9991
2 44337  55.2486 158.8257 0039299 216.3163 144.0827  1.00265382 25711
NAVSTAR 78 (USA 293)    
1 44506U 19056A   26172.58597302 -.00000097  00000+0  00000+0 0  9992
2 44506  55.6349 330.9669 0062210 197.6384 126.0098  2.00569871 50153
BEIDOU-3 M24            
1 44542U 19061A   26173.07503762  .00000089  00000+0  00000+0 0  9990
2 44542  54.3965 182.5626 0008403 358.7652   1.2597  1.86229099 45889
BEIDOU-3 M23            
1 44543U 19061B   26173.31218192  .00000091  00000+0  00000+0 0  9991
2 44543  54.3953 182.5227 0005830 338.7087  91.8728  1.86227318 45899
EUTELSAT 5 WEST B       
1 44624U 19067A   26173.74366786 -.00000040  00000+0  00000+0 0  9992
2 44624   0.0619 357.2297 0003249  94.0191  82.3947  1.00270838 24496
BEIDOU-3 M22            
1 44793U 19078A   26171.30405664 -.00000090  00000+0  00000+0 0  9995
2 44793  53.9327 299.7181 0006274  51.0609 308.9925  1.86227050 44707
BEIDOU-3 M21            
1 44794U 19078B   26169.29611752 -.00000076  00000+0  00000+0 0  9992
2 44794  53.9076 299.7502 0004064  49.2520 310.7784  1.86227678 44678
COSMOS 2544 [GLONASS-M] 
1 44850U 19088A   26173.66049595 -.00000062  00000+0  00000+0 0  9997
2 44850  65.5686  73.5480 0012911 258.0838 101.8040  2.13102846 50831
BEIDOU-3 M19            
1 44864U 19090A   26173.02502222 -.00000087  00000+0  00000+0 0  9993
2 44864  56.5630  62.6299 0017575 297.9710 239.4345  1.86231615 44323
BEIDOU-3 M20            
1 44865U 19090B   26172.89199890 -.00000086  00000+0  00000+0 0  9990
2 44865  56.5647  62.6690 0015410 312.3646 225.4433  1.86231548 44309
BEIDOU-3 G2             
1 45344U 20017A   26173.83168229 -.00000139  00000+0  00000+0 0  9990
2 45344   2.8763  47.4549 0002248  34.6092 208.4333  1.00271807 23319
COSMOS 2545 [GLONASS-M] 
1 45358U 20018A   26173.38622922 -.00000076  00000+0  00000+0 0  9991
2 45358  64.3519 312.2361 0008556 229.6925 130.2259  2.13102349 48775
BEIDOU-3 G3             
1 45807U 20040A   26172.05961120 -.00000357  00000+0  00000+0 0  9996
2 45807   2.4578  67.5071 0002605 323.9743   9.6886  1.00277648 22109
NAVSTAR 79 (USA 304)    
1 45854U 20041A   26173.71775760 -.00000098  00000+0  00000+0 0  9998
2 45854  56.6735  28.7279 0064233 204.6080 154.4402  2.00558666 44144
GALAXY 30 (G-30)        
1 46114U 20056C   26173.00698103  .00000037  00000+0  00000+0 0  9993
2 46114   0.0195  18.6690 0002324  70.4861  58.5611  1.00273596 21349
COSMOS 2547 [GLONASS-K] 
1 46805U 20075A   26173.10653786  .00000083  00000+0  00000+0 0  9991
2 46805  64.5997 192.3113 0009357 239.8177 120.1360  2.13100042 44011
NAVSTAR 80 (USA 309)    
1 46826U 20078A   26173.75144030  .00000052  00000+0  00000+0 0  9991
2 46826  53.9791 210.5526 0073700 207.3839 152.5141  2.00565024 41628
NAVSTAR 81 (USA 319)    
1 48859U 21054A   26172.74905854 -.00000098  00000+0  00000+0 0  9992
2 48859  55.1721 332.2753 0025387 228.5068 313.8862  2.00568823 36844
QZS-1R (MICHIBIKI-1R)   
1 49336U 21096A   26173.62668947 -.00000307  00000+0  00000+0 0  9999
2 49336  37.4731  79.5013 0755169 271.9072 278.6258  1.00254128 17063
GSAT0223 (GALILEO 27)   
1 49809U 21116A   26171.51326472 -.00000095  00000+0  00000+0 0  9991
2 49809  57.1598 341.5839 0001526 184.9823 176.1289  1.70476019 28244
GSAT0224 (GALILEO 28)   
1 49810U 21116B   26172.51826713 -.00000097  00000+0  00000+0 0  9999
2 49810  57.1598 341.5558 0001287 159.8304 210.7002  1.70476208 28285
COSMOS 2557 [GLONASS-K] 
1 52984U 22075A   26173.27080705 -.00000076  00000+0  00000+0 0  9994
2 52984  64.2952 314.3058 0010303 273.7574  86.1177  2.13102021 30829
COSMOS 2559 [GLONASS-K] 
1 54031U 22130A   26169.33634979 -.00000058  00000+0  00000+0 0  9991
2 54031  64.2705 314.5280 0012585 178.2040 181.7898  2.13101593 28710
COSMOS 2564 [GLONASS-M] 
1 54377U 22161A   26171.05664634  .00000061  00000+0  00000+0 0  9994
2 54377  64.7420 192.6165 0012215 224.8634 135.0824  2.13102033 27693
NAVSTAR 82 (USA 343)    
1 55268U 23009A   26172.94148182  .00000073  00000+0  00000+0 0  9993
2 55268  55.1235 148.3319 0006151 317.3275  42.3704  2.00571277 25333
BEIDOU-3 G4             
1 56564U 23066A   26173.84359561 -.00000278  00000+0  00000+0 0  9999
2 56564   0.4800 333.0281 0004585 177.1449 204.5969  1.00272324 11452
NVS-01 (IRNSS-1J)       
1 56759U 23076A   26173.84151560 -.00000331  00000+0  00000+0 0  9995
2 56759   2.1520 244.0775 0002954  15.6948  83.6741  1.00276584 11178
COSMOS 2569 [GLONASS-K2]
1 57517U 23114A   26172.94601313 -.00000057  00000+0  00000+0 0  9992
2 57517  65.3047  72.4599 0010483 296.8456  63.0820  2.13103733 22369
BEIDOU-3 M28            
1 58654U 23207A   26173.13189777 -.00000089  00000+0  00000+0 0  9990
2 58654  55.7571  62.1361 0003104 350.5709   9.4595  1.86229789 16939
